1 44930U 20001S   22365.46783894  .00001231  00000-0  10155-3 0  9992
2 44930  53.0532 173.0273 0001912  75.3482 284.7718 15.06403517164375
1 44930U 20001S   22365.73322975  .00000311  00000-0  39782-4 0  9997
2 44930  53.0531 171.8361 0001625  75.6044 284.5125 15.06398127164411
1 44930U 20001S   22365.73322975  .00000311  00000-0  39782-4 0  9997
2 44930  53.0531 171.8361 0001625  75.6044 284.5125 15.06398127164411
1 44930U 20001S   23001.46304408 -.00000372  00000-0 -60687-5 0  9994
2 44930  53.0534 168.5598 0001626  74.6995 285.4174 15.06398685164529
1 44930U 20001S   23001.72843662 -.00001093  00000-0 -54481-4 0  9998
2 44930  53.0536 167.3683 0001628  74.1160 286.0009 15.06392971164564
1 44930U 20001S   23001.72843662 -.00001093  00000-0 -54481-4 0  9998
2 44930  53.0536 167.3683 0001628  74.1160 286.0009 15.06392971164564
1 44930U 20001S   23002.45824954  .00000815  00000-0  73631-4 0  9999
2 44930  53.0543 164.0925 0001580  73.7486 286.3676 15.06393180164676
1 44930U 20001S   23002.72363521  .00001161  00000-0  96828-4 0  9995
2 44930  53.0544 162.9015 0001591  72.6984 287.4179 15.06396073164716
1 44930U 20001S   23002.72363521  .00001161  00000-0  96828-4 0  9995
2 44930  53.0544 162.9015 0001591  72.6984 287.4179 15.06396073164716
1 44930U 20001S   23003.45345517  .00001157  00000-0  96563-4 0  9992
2 44930  53.0554 159.6259 0001550  70.9810 289.1347 15.06391566164824
1 44930U 20001S   23003.71884622  .00000743  00000-0  68790-4 0  9997
2 44930  53.0554 158.4344 0001554  70.8124 289.3033 15.06388941164868
1 44930U 20001S   23003.71884622  .00000743  00000-0  68790-4 0  9997
2 44930  53.0554 158.4344 0001554  70.8124 289.3033 15.06388941164868
1 44930U 20001S   23004.84673725  .00000751  00000-0  69315-4 0  9995
2 44930  53.0552 153.3707 0001510  72.8287 287.2867 15.06399064165037
1 44930U 20001S   23004.84673725  .00000751  00000-0  69315-4 0  9995
2 44930  53.0552 153.3707 0001510  72.8287 287.2867 15.06399064165037
1 44930U 20001S   23005.44385120  .00002793  00000-0  20632-3 0  9997
2 44930  53.0541 150.6894 0001399  62.3389 297.7742 15.06402581165121
1 44930U 20001S   23005.44385120  .00002793  00000-0  20632-3 0  9997
2 44930  53.0541 150.6894 0001399  62.3389 297.7742 15.06402581165121
1 44930U 20001S   23006.37272163 -.00000482  00000-0 -13479-4 0  9999
2 44930  53.0547 146.5200 0001747  69.1733 290.9443 15.06387552165265
1 44930U 20001S   23006.77080784 -.00000794  00000-0 -34416-4 0  9999
2 44930  53.0542 144.7337 0001654  69.0114 291.1051 15.06382409165321
1 44930U 20001S   23007.10253876 -.00000493  00000-0 -14201-4 0  9997
2 44930  53.0543 143.2435 0001634  68.4330 291.6833 15.06390062165378
1 44930U 20001S   23007.36791842  .00000268  00000-0  36871-4 0  9990
2 44930  53.0538 142.0511 0001377  67.6785 292.4349 15.06400475165419
1 44930U 20001S   23007.76600537 -.00000201  00000-0  53944-5 0  9993
2 44930  53.0545 140.2646 0001498  65.6056 294.5089 15.06393237165476
1 44930U 20001S   23007.76600537 -.00000201  00000-0  53944-5 0  9993
2 44930  53.0545 140.2646 0001498  65.6056 294.5089 15.06393237165476
1 44930U 20001S   23008.49580834 -.00008387  00000-0 -54448-3 0  9993
2 44930  53.0550 136.9875 0001737  62.1531 297.9634 15.06419698165589
1 44930U 20001S   23008.49580834 -.00008387  00000-0 -54448-3 0  9993
2 44930  53.0550 136.9875 0001737  62.1531 297.9634 15.06419698165589
1 44930U 20001S   23008.62851307  .00006038  00000-0  42383-3 0  9998
2 44930  53.0547 136.3933 0001554  61.4605 298.6540 15.06404349165609
1 44930U 20001S   23008.62851307  .00006038  00000-0  42383-3 0  9998
2 44930  53.0547 136.3933 0001554  61.4605 298.6540 15.06404349165609
1 44930U 20001S   23009.62372639  .00000678  00000-0  64404-4 0  9998
2 44930  53.0534 131.9227 0001073  30.5668 329.5383 15.06391619165754
1 44930U 20001S   23009.69007351  .00000721  00000-0  67301-4 0  9999
2 44930  53.0518 131.6247 0001636  64.1644 295.9513 15.06391515165764
1 44930U 20001S   23009.69007351  .00000721  00000-0  67301-4 0  9999
2 44930  53.0518 131.6247 0001636  64.1644 295.9513 15.06391515165764
1 44930U 20001S   23010.61892873  .00000905  00000-0  79629-4 0  9994
2 44930  53.0520 127.4586 0001704  69.2768 290.8403 15.06400158165907
1 44930U 20001S   23010.75162411  .00003491  00000-0  25315-3 0  9992
2 44930  53.0515 126.8626 0001713  70.6433 289.4741 15.06399959165921
1 44930U 20001S   23010.75162411  .00003491  00000-0  25315-3 0  9992
2 44930  53.0515 126.8626 0001713  70.6433 289.4741 15.06399959165921
1 44930U 20001S   23011.08336341  .00002474  00000-0  18493-3 0  9993
2 44930  53.0501 125.3725 0001665  63.7566 296.3594 15.06393167165979
1 44930U 20001S   23011.54779046  .00004683  00000-0  33307-3 0  9992
2 44930  53.0509 123.2877 0001527  72.6794 287.4361 15.06399660166047
1 44930U 20001S   23012.67568678  .00002575  00000-0  19168-3 0  9991
2 44930  53.0500 118.2235 0001651  77.3693 282.7481 15.06401296166217
1 44930U 20001S   23012.67568678  .00002575  00000-0  19168-3 0  9991
2 44930  53.0500 118.2235 0001651  77.3693 282.7481 15.06401296166217
1 44930U 20001S   23013.53819703  .00001725  00000-0  13466-3 0  9996
2 44930  53.0508 114.3525 0001195  80.9626 279.1498 15.06399249166349
1 44930U 20001S   23013.53819703  .00001725  00000-0  13466-3 0  9996
2 44930  53.0508 114.3525 0001195  80.9626 279.1498 15.06399249166349
1 44930U 20001S   23013.67088602  .00004674  00000-0  33237-3 0  9991
2 44930  53.0510 113.7532 0001417  99.0668 261.0482 15.06409965166369
1 44930U 20001S   23013.67088602  .00004674  00000-0  33237-3 0  9991
2 44930  53.0510 113.7532 0001417  99.0668 261.0482 15.06409965166369
1 44930U 20001S   23014.26801258  .00002137  00000-0  16232-3 0  9995
2 44930  53.0487 111.0765 0001751  85.0023 275.1166 15.06400857166458
1 44930U 20001S   23015.52860020  .00000638  00000-0  61696-4 0  9996
2 44930  53.0517 105.4143 0001154 104.4219 255.6898 15.06402713166648
1 44930U 20001S   23015.52860020  .00000638  00000-0  61696-4 0  9996
2 44930  53.0517 105.4143 0001154 104.4219 255.6898 15.06402713166648
1 44930U 20001S   23015.92668602  .00002348  00000-0  17645-3 0  9996
2 44930  53.0525 103.6261 0001523  66.4606 293.6543 15.06399802166705
1 44930U 20001S   23015.92668602  .00002348  00000-0  17645-3 0  9996
2 44930  53.0525 103.6261 0001523  66.4606 293.6543 15.06399802166705
1 44930U 20001S   23016.52380131  .00005563  00000-0  39193-3 0  9995
2 44930  53.0520 100.9540 0001364  86.2660 273.8485 15.06411914166796
1 44930U 20001S   23016.92189278 -.00003199  00000-0 -19598-3 0  9990
2 44930  53.0532  99.1606 0002080  84.7579 275.3647 15.06385276166854
1 44930U 20001S   23016.92189278 -.00003199  00000-0 -19598-3 0  9990
2 44930  53.0532  99.1606 0002080  84.7579 275.3647 15.06385276166854
1 44930U 20001S   23017.58537255 -.00003847  00000-0 -23966-3 0  9999
2 44930  53.0534  96.1863 0001513 103.9990 256.1167 15.06373881166953
1 44930U 20001S   23017.58537255 -.00003847  00000-0 -23966-3 0  9999
2 44930  53.0534  96.1863 0001513 103.9990 256.1167 15.06373881166953
1 44930U 20001S   23017.65171735 -.00003864  00000-0 -24077-3 0  9997
2 44930  53.0535  95.8821 0001242  81.2825 278.8304 15.06379161166960
1 44930U 20001S   23018.31518557  .00027831  00000-0  18791-2 0  9991
2 44930  53.0515  92.9065 0001266  96.6713 263.4420 15.06416688167065
1 44930U 20001S   23018.51422219  .00031772  00000-0  21404-2 0  9996
2 44930  53.0515  92.0135 0001291  94.5475 265.5662 15.06432125167092
1 44930U 20001S   23018.91229742  .00020697  00000-0  14031-2 0  9998
2 44930  53.0524  90.2265 0001277 105.0983 255.0147 15.06430414167150
1 44930U 20001S   23018.91229742  .00020697  00000-0  14031-2 0  9998
2 44930  53.0524  90.2265 0001277 105.0983 255.0147 15.06430414167150
1 44930U 20001S   23019.17768244  .00016021  00000-0  10913-2 0  9993
2 44930  53.0516  89.0345 0001304 104.1559 255.9575 15.06424079167194
1 44930U 20001S   23019.44306497  .00023410  00000-0  15840-2 0  9995
2 44930  53.0516  87.8430 0001298 105.8230 254.2902 15.06429490167234
1 44930U 20001S   23019.90747816  .00034364  00000-0  23108-2 0  9996
2 44930  53.0516  85.7581 0001362 101.7862 258.3280 15.06462182167303
1 44930U 20001S   23020.43827587  .00020605  00000-0  13981-2 0  9991
2 44930  53.0519  83.3759 0001404  77.4132 282.7014 15.06401117167388
1 44930U 20001S   23020.43827587  .00020605  00000-0  13981-2 0  9991
2 44930  53.0519  83.3759 0001404  77.4132 282.7014 15.06401117167388
1 44930U 20001S   23020.90270716  .00016044  00000-0  10937-2 0  9999
2 44930  53.0527  81.2908 0001544  85.2730 274.8435 15.06394478167454
1 44930U 20001S   23021.43348106  .00026854  00000-0  18142-2 0  9993
2 44930  53.0520  78.9083 0001569  85.6997 274.4171 15.06413751167538
1 44930U 20001S   23022.42868392  .00011334  00000-0  77834-3 0  9998
2 44930  53.0524  74.4385 0001124  79.0570 281.0545 15.06410440167686
1 44930U 20001S   23023.15850323 -.00000690  00000-0 -27413-4 0  9998
2 44930  53.0523  71.1646 0001307  91.0656 269.0482 15.06392461167791
1 44930U 20001S   23023.42388700  .00001791  00000-0  13911-3 0  9991
2 44930  53.0530  69.9733 0001496 102.1610 257.9546 15.06400398167835
1 44930U 20001S   23024.15370804 -.00000328  00000-0 -31340-5 0  9993
2 44930  53.0520  66.6964 0001306 102.4886 257.6249 15.06392496167940
1 44930U 20001S   23024.48543907  .00002111  00000-0  16056-3 0  9990
2 44930  53.0532  65.2091 0001519 109.0770 251.0384 15.06402007167993
1 44930U 20001S   23025.14891304  .00002172  00000-0  16471-3 0  9999
2 44930  53.0539  62.2278 0001567 106.8952 253.2209 15.06394952168095
1 44930U 20001S   23025.41429727  .00001735  00000-0  13536-3 0  9998
2 44930  53.0525  61.0352 0001365  99.8811 260.2333 15.06400793168133
1 44930U 20001S   23025.81238459  .00004050  00000-0  29065-3 0  9999
2 44930  53.0526  59.2480 0001462  98.5870 261.5285 15.06393984168193
1 44930U 20001S   23026.34315450  .00002548  00000-0  18987-3 0  9996
2 44930  53.0522  56.8648 0001393 101.6861 258.4284 15.06403190168271
1 44930U 20001S   23026.34315450  .00002548  00000-0  18987-3 0  9996
2 44930  53.0522  56.8648 0001393 101.6861 258.4284 15.06403190168271
1 44930U 20001S   23027.07297171  .00002056  00000-0  15688-3 0  9995
2 44930  53.0529  53.5887 0001394 102.0672 258.0473 15.06400629168385
1 44930U 20001S   23027.47104834  .00002813  00000-0  20766-3 0  9996
2 44930  53.0520  51.8007 0001430 100.9989 259.1160 15.06406523168441
1 44930U 20001S   23028.20086608  .00000834  00000-0  74908-4 0  9995
2 44930  53.0523  48.5206 0001654 122.5620 237.5529 15.06398679168551
1 44930U 20001S   23028.46625342  .00001087  00000-0  91850-4 0  9993
2 44930  53.0520  47.3325 0001437 105.5979 254.5169 15.06400557168596
1 44930U 20001S   23029.26241782  .00000632  00000-0  61325-4 0  9993
2 44930  53.0525  43.7574 0001471 107.8629 252.2521 15.06396087168715
1 44930U 20001S   23029.39510982 -.00000144  00000-0  92365-5 0  9996
2 44930  53.0529  43.1612 0001554 109.6032 250.5124 15.06398057168737
1 44930U 20001S   23030.39031873  .00001118  00000-0  93963-4 0  9990
2 44930  53.0549  38.6961 0001276  91.2445 268.8691 15.06396132168889
1 44930U 20001S   23030.39031873  .00001118  00000-0  93963-4 0  9990
2 44930  53.0549  38.6961 0001276  91.2445 268.8691 15.06396132168889
1 44930U 20001S   23031.38551790  .00002000  00000-0  15311-3 0  9996
2 44930  53.0545  34.2274 0001344  94.1720 265.9422 15.06402090169037
